{
    "links": {
        "self": "http://www.neowsapp.com/rest/v1/neo/3617075?api_key=iIulBulltgU6a56xZRHN4H3l9WmuAYTsLGpBGhQ2"
    },
    "id": "3617075",
    "neo_reference_id": "3617075",
    "name": "(2012 VB26)",
    "designation": "2012 VB26",
    "nasa_jpl_url": "http://ssd.jpl.nasa.gov/sbdb.cgi?sstr=3617075",
    "absolute_magnitude_h": 25.5,
    "estimated_diameter": {
        "kilometers": {
            "estimated_diameter_min": 0.0211132445,
            "estimated_diameter_max": 0.0472106499
        },
        "meters": {
            "estimated_diameter_min": 21.113244479,
            "estimated_diameter_max": 47.2106498806
        },
        "miles": {
            "estimated_diameter_min": 0.0131191578,
            "estimated_diameter_max": 0.0293353287
        },
        "feet": {
            "estimated_diameter_min": 69.2691770164,
            "estimated_diameter_max": 154.8905885541
        }
    },
    "is_potentially_hazardous_asteroid": false,
    "close_approach_data": [
        {
            "close_approach_date": "1932-05-09",
            "close_approach_date_full": "1932-May-09 02:09",
            "epoch_date_close_approach": -1188078660000,
            "relative_velocity": {
                "kilometers_per_second": "17.1289309628",
                "kilometers_per_hour": "61664.1514661506",
                "miles_per_hour": "38315.7056707312"
            },
            "miss_distance": {
                "astronomical": "0.0795369098",
                "lunar": "30.9398579122",
                "kilometers": "11898552.292462126",
                "miles": "7393417.5572082988"
            },
            "orbiting_body": "Mars"
        },
        {
            "close_approach_date": "2012-11-17",
            "close_approach_date_full": "2012-Nov-17 13:02",
            "epoch_date_close_approach": 1353157320000,
            "relative_velocity": {
                "kilometers_per_second": "12.9577757059",
                "kilometers_per_hour": "46647.992541361",
                "miles_per_hour": "28985.2484766029"
            },
            "miss_distance": {
                "astronomical": "0.0250972275",
                "lunar": "9.7628214975",
                "kilometers": "3754491.776905425",
                "miles": "2332933.010627865"
            },
            "orbiting_body": "Earth"
        }
    ],
    "orbital_data": {
        "orbit_id": "5",
        "orbit_determination_date": "2019-07-16 06:15:02",
        "first_observation_date": "2012-11-06",
        "last_observation_date": "2012-11-07",
        "data_arc_in_days": 1,
        "observations_used": 18,
        "orbit_uncertainty": "9",
        "minimum_orbit_intersection": ".0203409",
        "jupiter_tisserand_invariant": "3.799",
        "epoch_osculation": "2456238.5",
        "eccentricity": ".5633238549216011",
        "semi_major_axis": "1.846934256988678",
        "inclination": "4.066983988024834",
        "ascending_node_longitude": "217.3741082467256",
        "orbital_period": "916.8020630132461",
        "perihelion_distance": ".8065121315550529",
        "perihelion_argument": "257.8966398574674",
        "aphelion_distance": "2.887356382422303",
        "perihelion_time": "2456290.137953207325",
        "mean_anomaly": "339.7233624305572",
        "mean_motion": ".3926692734708633",
        "equinox": "J2000",
        "orbit_class": {
            "orbit_class_type": "APO",
            "orbit_class_description": "Near-Earth asteroid orbits which cross the Earth’s orbit similar to that of 1862 Apollo",
            "orbit_class_range": "a (semi-major axis) > 1.0 AU; q (perihelion) < 1.017 AU"
        }
    },
    "is_sentry_object": false
}